OBJECT_NAME,OBJECT_ID,EPOCH,MEAN_MOTION,ECCENTRICITY,INCLINATION,RA_OF_ASC_NODE,ARG_OF_PERICENTER,MEAN_ANOMALY,EPHEMERIS_TYPE,CLASSIFICATION_TYPE,NORAD_CAT_ID,ELEMENT_SET_NO,REV_AT_EPOCH,BSTAR,MEAN_MOTION_DOT,MEAN_MOTION_DDOT
CUBEBUG-2 (LO-74),2013-066AA,2026-06-18T19:18:56.098944,14.93773469,.00582932,97.8910,118.7896,23.8630,336.5272,0,U,39440,999,67723,.36474665E-3,.3935E-4,0
FUNCUBE-1 (AO-73),2013-066AE,2026-06-18T21:54:11.978496,15.09506452,.0035784,97.8280,141.3944,194.7997,165.2187,0,U,39444,999,67992,.2951225E-3,.4732E-4,0
UWE-3,2013-066AG,2026-06-18T14:51:46.986912,14.97034048,.0047372,97.8699,125.7026,316.3669,43.3811,0,U,39446,999,67779,.31072148E-3,.3597E-4,0
UNISAT-6,2014-033C,2026-06-18T21:09:11.606976,14.88252656,.00461792,97.7885,322.5631,63.8864,296.7094,0,U,40012,999,64641,.21476827E-3,.1966E-4,0
DUCHIFAT-1,2014-033M,2026-06-18T16:25:31.161216,15.64848252,.0002814,98.0447,229.0553,113.8680,246.2872,0,U,40021,999,65598,.89915901E-3,.88318E-3,0
QB50P1,2014-033R,2026-06-18T22:18:31.458528,15.18280964,.00080072,98.0963,181.1977,208.7804,151.2987,0,U,40025,999,65329,.30693446E-3,.622E-4,0
LILACSAT-2,2015-049K,2026-06-18T22:46:50.196576,15.51491899,.00056177,97.4640,206.8579,236.7173,123.3541,0,U,40908,999,59602,.23002746E-3,.13503E-3,0
FOX-1A (AO-85),2015-058D,2026-06-18T16:39:25.987392,14.90975407,.01305339,64.7758,274.3012,56.0068,305.3365,0,U,40967,999,11379,.17186481E-3,.1823E-4,0
CAS-2T & KS-1Q,2016-066G,2026-06-18T18:20:40.710912,14.44698862,.03428374,98.3822,245.4827,124.7096,238.6899,0,U,41847,999,50502,.19555759E-3,.1345E-4,0
RADFXSAT (FOX-1B),2017-073E,2026-06-17T14:31:00.659136,15.12722439,.0149538,97.4696,35.8108,327.7970,31.4193,0,U,43017,999,46545,.24962E-3,.5679E-4,0
DIWATA-2B,2018-084H,2026-06-18T23:17:26.156832,15.00459955,.00126145,98.1180,6.2557,164.3723,195.7891,0,U,43678,999,41648,.17827744E-3,.2181E-4,0
ES'HAIL 2,2018-090A,2026-06-18T21:35:59.945568,1.00271632,.00017207,0.0144,35.4274,89.0129,132.4694,0,U,43700,999,2769,0,.138E-5,0
FOX-1CLIFF (AO-95),2018-099N,2026-06-18T17:11:22.272864,15.26738292,.00078001,97.4376,229.9567,352.1170,7.9945,0,U,43770,999,41345,.35231523E-3,.9199E-4,0
ITASAT,2018-099AE,2026-06-18T20:47:09.910752,15.19074209,.00119149,97.4023,221.3444,354.4403,5.6697,0,U,43786,999,41316,.23667997E-3,.4904E-4,0
JY1SAT (JO-97),2018-099AX,2026-06-18T17:26:42.484704,15.33692611,.00044506,97.4126,232.5665,255.1384,104.9366,0,U,43803,999,41386,.40993925E-3,.13287E-3,0
UWE-4,2018-111E,2026-06-18T18:26:26.240928,15.46206755,.00052601,97.5851,98.2321,335.4333,24.6665,0,U,43880,999,41102,.55973132E-3,.27476E-3,0
TIANYAN 01,2019-093C,2026-06-18T23:55:25.013856,14.86519235,.00150688,97.7532,242.1850,81.5238,278.7686,0,U,44881,999,35168,.4202895E-5,-.16E-6,0
RS-44 & BREEZE-KM R/B,2019-096E,2026-06-18T23:02:00.556224,12.79748868,.02182365,82.5220,338.5268,140.0360,221.7037,0,U,44909,999,30257,-.14649278E-4,.9E-7,0
SALSAT,2020-068K,2026-06-18T23:26:50.723808,15.29820569,.00079502,97.8853,173.1506,300.6759,59.3696,0,U,46495,999,31563,.21049844E-3,.5999E-4,0
XW-3 (CAS-9),2021-131B,2026-06-18T23:57:37.285344,14.41358151,.00053995,98.4986,262.3782,92.7082,267.4725,0,U,50466,999,23537,.78435784E-4,.21E-5,0
GREENCUBE (IO-117),2022-080E,2026-06-18T10:18:19.245024,6.42583246,.0008904,70.1442,297.8130,289.4279,70.5418,0,U,53109,999,9214,0,-.3E-7,0
UMKA 1 (RS40S),2023-091G,2026-06-18T22:28:07.714560,15.20834494,.00142829,97.5046,228.6268,112.1927,248.0825,0,U,57172,999,16427,.21415362E-3,.4667E-4,0
CUBESX-HSE 3 (RS42S),2023-091N,2026-06-18T22:31:06.011328,15.31250521,.00119986,97.5087,235.5476,89.5196,270.7419,0,U,57178,999,16469,.34872244E-3,.10473E-3,0
MONITOR-3 (RS58S),2023-091Q,2026-06-18T21:37:37.377120,15.27869840,.00130862,97.5077,233.3598,95.5295,264.7437,0,U,57180,999,16455,.30689343E-3,.8295E-4,0
MONITOR-4 (RS57S),2023-091S,2026-06-18T22:41:37.891680,15.27956508,.00130651,97.5072,233.3760,95.7409,264.5320,0,U,57182,999,16456,.31611011E-3,.857E-4,0
MONITOR-2 (RS39S),2023-091U,2026-06-18T23:01:53.746176,15.18924287,.00127678,97.5068,228.2312,105.7449,254.5194,0,U,57184,999,16422,.19444588E-3,.3999E-4,0
SVYATOBOR 1 (RS60S),2023-091X,2026-06-18T23:02:39.662592,15.26640072,.0010839,97.5086,233.7870,89.2348,271.0132,0,U,57187,999,16458,.27021657E-3,.702E-4,0
VIZARD-METEO (RS38S),2023-091Z,2026-06-18T21:45:22.566816,15.36070651,.00081538,97.5088,239.4261,72.6405,287.5730,0,U,57189,999,16495,.36173575E-3,.12645E-3,0
POLYTECH-UNIVERSE 3 (RS46S),2023-091AB,2026-06-18T22:05:52.570176,15.19126287,.00169487,97.5044,227.6971,121.2592,239.0305,0,U,57191,999,16421,.19983225E-3,.4142E-4,0
UTMN 2 (RS27S),2023-091AP,2026-06-18T22:55:02.870112,15.32087509,.00091689,97.5083,237.2007,78.4989,281.7282,0,U,57203,999,16481,.33669108E-3,.10367E-3,0
