CUBEBUG-2 (LO-74)       
1 39440U 13066AA  26169.80481596  .00003935  00000+0  36475-3 0  9998
2 39440  97.8910 118.7896 0058293  23.8630 336.5272 14.93773469677231
FUNCUBE-1 (AO-73)       
1 39444U 13066AE  26169.91263864  .00004732  00000+0  29512-3 0  9990
2 39444  97.8280 141.3944 0035784 194.7997 165.2187 15.09506452679929
UWE-3                   
1 39446U 13066AG  26169.61929383  .00003597  00000+0  31072-3 0  9996
2 39446  97.8699 125.7026 0047372 316.3669  43.3811 14.97034048677792
UNISAT-6                
1 40012U 14033C   26169.88138434  .00001966  00000+0  21477-3 0  9996
2 40012  97.7885 322.5631 0046179  63.8864 296.7094 14.88252656646412
DUCHIFAT-1              
1 40021U 14033M   26169.68438844  .00088318  00000+0  89916-3 0  9990
2 40021  98.0447 229.0553 0002814 113.8680 246.2872 15.64848252655988
QB50P1                  
1 40025U 14033R   26169.92953077  .00006220  00000+0  30693-3 0  9991
2 40025  98.0963 181.1977 0008007 208.7804 151.2987 15.18280964653298
LILACSAT-2              
1 40908U 15049K   26169.94919209  .00013503  00000+0  23003-3 0  9999
2 40908  97.4640 206.8579 0005617 236.7173 123.3541 15.51491899596021
FOX-1A (AO-85)          
1 40967U 15058D   26169.69405078  .00001823  00000+0  17186-3 0  9997
2 40967  64.7758 274.3012 0130533  56.0068 305.3365 14.90975407113796
CAS-2T & KS-1Q          
1 41847U 16066G   26169.76436008  .00001345  00000+0  19556-3 0  9992
2 41847  98.3822 245.4827 0342837 124.7096 238.6899 14.44698862505025
RADFXSAT (FOX-1B)       
1 43017U 17073E   26168.60486874  .00005679  00000+0  24962-3 0  9991
2 43017  97.4696  35.8108 0149538 327.7970  31.4193 15.12722439465459
DIWATA-2B               
1 43678U 18084H   26169.97044163  .00002181  00000+0  17828-3 0  9997
2 43678  98.1180   6.2557 0012614 164.3723 195.7891 15.00459955416488
ES'HAIL 2               
1 43700U 18090A   26169.89999937  .00000138  00000+0  00000+0 0  9999
2 43700   0.0144  35.4274 0001720  89.0129 132.4694  1.00271632 27694
FOX-1CLIFF (AO-95)      
1 43770U 18099N   26169.71623001  .00009199  00000+0  35232-3 0  9997
2 43770  97.4376 229.9567 0007800 352.1170   7.9945 15.26738292413459
ITASAT                  
1 43786U 18099AE  26169.86608693  .00004904  00000+0  23668-3 0  9999
2 43786  97.4023 221.3444 0011914 354.4403   5.6697 15.19074209413160
JY1SAT (JO-97)          
1 43803U 18099AX  26169.72688061  .00013287  00000+0  40994-3 0  9996
2 43803  97.4126 232.5665 0004450 255.1384 104.9366 15.33692611413867
UWE-4                   
1 43880U 18111E   26169.76835927  .00027476  00000+0  55973-3 0  9993
2 43880  97.5851  98.2321 0005260 335.4333  24.6665 15.46206755411020
TIANYAN 01              
1 44881U 19093C   26169.99681729 -.00000016  00000+0  42029-5 0  9991
2 44881  97.7532 242.1850 0015068  81.5238 278.7686 14.86519235351680
RS-44 & BREEZE-KM R/B   
1 44909U 19096E   26169.95972866  .00000009  00000+0 -14649-4 0  9994
2 44909  82.5220 338.5268 0218236 140.0360 221.7037 12.79748868302577
SALSAT                  
1 46495U 20068K   26169.97697597  .00005999  00000+0  21050-3 0  9999
2 46495  97.8853 173.1506 0007950 300.6759  59.3696 15.29820569315637
XW-3 (CAS-9)            
1 50466U 21131B   26169.99834821  .00000210  00000+0  78436-4 0  9991
2 50466  98.4986 262.3782 0005399  92.7082 267.4725 14.41358151235377
GREENCUBE (IO-117)      
1 53109U 22080E   26169.42938941 -.00000003  00000+0  00000+0 0  9996
2 53109  70.1442 297.8130 0008904 289.4279  70.5418  6.42583246 92141
UMKA 1 (RS40S)          
1 57172U 23091G   26169.93620040  .00004667  00000+0  21415-3 0  9993
2 57172  97.5046 228.6268 0014282 112.1927 248.0825 15.20834494164278
CUBESX-HSE 3 (RS42S)    
1 57178U 23091N   26169.93826402  .00010473  00000+0  34872-3 0  9992
2 57178  97.5087 235.5476 0011998  89.5196 270.7419 15.31250521164695
MONITOR-3 (RS58S)       
1 57180U 23091Q   26169.90112705  .00008295  00000+0  30689-3 0  9997
2 57180  97.5077 233.3598 0013086  95.5295 264.7437 15.27869840164558
MONITOR-4 (RS57S)       
1 57182U 23091S   26169.94557745  .00008570  00000+0  31611-3 0  9992
2 57182  97.5072 233.3760 0013065  95.7409 264.5320 15.27956508164560
MONITOR-2 (RS39S)       
1 57184U 23091U   26169.95964984  .00003999  00000+0  19445-3 0  9993
2 57184  97.5068 228.2312 0012767 105.7449 254.5194 15.18924287164227
SVYATOBOR 1 (RS60S)     
1 57187U 23091X   26169.96018128  .00007020  00000+0  27022-3 0  9996
2 57187  97.5086 233.7870 0010839  89.2348 271.0132 15.26640072164583
VIZARD-METEO (RS38S)    
1 57189U 23091Z   26169.90651119  .00012645  00000+0  36174-3 0  9992
2 57189  97.5088 239.4261 0008153  72.6405 287.5730 15.36070651164958
POLYTECH-UNIVERSE 3 (R*)
1 57191U 23091AB  26169.92074734  .00004142  00000+0  19983-3 0  9991
2 57191  97.5044 227.6971 0016948 121.2592 239.0305 15.19126287164216
UTMN 2 (RS27S)          
1 57203U 23091AP  26169.95489433  .00010367  00000+0  33669-3 0  9997
2 57203  97.5083 237.2007 0009168  78.4989 281.7282 15.32087509164811
